OBJECT_NAME,OBJECT_ID,EPOCH,MEAN_MOTION,ECCENTRICITY,INCLINATION,RA_OF_ASC_NODE,ARG_OF_PERICENTER,MEAN_ANOMALY,EPHEMERIS_TYPE,CLASSIFICATION_TYPE,NORAD_CAT_ID,ELEMENT_SET_NO,REV_AT_EPOCH,BSTAR,MEAN_MOTION_DOT,MEAN_MOTION_DDOT
KUZGTU 1 (RS47S),2023-091AV,2026-07-11T03:57:49.188096,15.30411720,.0010511,97.5057,256.8960,20.5187,339.6473,0,U,57217,999,16804,.24141E-3,.7032E-4,0
SONATE-2,2024-043Q,2026-07-09T09:40:01.684992,15.60482785,.00067809,97.5552,342.1927,123.5255,236.6650,0,U,59112,999,13135,.44852354E-3,.3693E-3,0
MESAT1,2024-125G,2026-07-10T12:22:18.062112,15.65989421,.0010995,97.2265,49.5713,127.0429,233.1839,0,U,60209,999,11321,.52771E-3,.54117E-3,0
OOV-CUBE (TUBSAT-30),2024-128F,2026-07-09T14:40:40.950912,15.02859618,.00418074,61.9941,147.3745,138.6970,221.7297,0,U,60240,999,10948,.11248636E-3,.1327E-4,0
COLIBRI-S (RS67S),2024-199M,2026-07-11T04:04:34.705632,15.48733680,.000846,97.2969,66.2553,176.4780,183.6532,0,U,61746,999,14112,.26957E-3,.14385E-3,0
HORS 3 (RS81S),2024-199U,2026-07-11T03:27:42.342048,15.56698814,.0006667,97.2948,68.4873,168.3655,191.7756,0,U,61753,999,14128,.36075E-3,.25708E-3,0
HORS 4 (RS82S),2024-199V,2026-07-11T03:44:35.546208,15.62085685,.0006571,97.2892,69.8664,159.7802,200.3717,0,U,61754,999,14138,.455E-3,.39861E-3,0
SIT-2086,2024-199AF,2026-07-11T03:38:20.120064,15.54810310,.0007792,97.2907,68.8880,157.0022,203.1582,0,U,61764,999,13815,.37545E-3,.24969E-3,0
HYPERVIEW 1G (RS66S),2024-199AP,2026-07-11T04:47:30.350976,15.83952976,.0008139,97.2811,73.2616,154.9374,205.2292,0,U,61772,999,13846,.74044E-3,.167398E-2,0
ALTAIR (RS65S),2024-199AW,2026-07-11T04:43:17.727744,15.37453179,.0011598,97.3006,61.3930,211.6836,148.3712,0,U,61779,999,14080,.15671E-3,.5684E-4,0
ASRTU-1 (AO-123),2024-199AY,2026-07-11T03:23:30.740928,15.36015722,.0012581,97.2977,60.5981,216.0734,143.9663,0,U,61781,999,13760,.13495E-3,.4662E-4,0
SAMSAT-IONOSPHERE (RS75S),2024-199BB,2026-07-11T04:45:12.154176,15.59846453,.0008762,97.2913,68.6837,173.2543,186.8834,0,U,61784,999,14130,.44986E-3,.36179E-3,0
RTU MIREA 1 (RS51S),2024-199BC,2026-07-11T03:57:33.783840,15.63909165,.0008841,97.2901,69.6149,168.0269,192.1202,0,U,61785,999,13821,.47512E-3,.44758E-3,0
TEVEL2-4,2025-052D,2026-07-11T04:06:23.688000,15.35472300,.0003864,97.3880,88.6129,59.7118,300.4508,0,U,63213,999,7379,.33662E-3,.11528E-3,0
TEVEL2-5,2025-052E,2026-07-08T15:39:31.999680,15.35218873,.00041301,97.3873,86.0291,66.2017,293.9660,0,U,63214,999,7340,.41324257E-3,.14062E-3,0
TEVEL2-6,2025-052F,2026-07-09T18:33:36.497376,15.35215103,.00039681,97.3877,87.1376,66.9512,293.2149,0,U,63215,999,7357,.40183524E-3,.13669E-3,0
TEVEL2-1,2025-052H,2026-07-11T02:44:51.808992,15.34682944,.0004514,97.3852,88.0769,68.0772,292.0951,0,U,63217,999,7376,.34032E-3,.11367E-3,0
TEVEL2-3,2025-052J,2026-07-11T04:09:42.827040,15.34746846,.0004286,97.3859,88.1615,69.2131,290.9570,0,U,63218,999,7377,.32943E-3,.11022E-3,0
TEVEL2-2,2025-052K,2026-07-08T12:09:23.175072,15.34625790,.00047047,97.3852,85.4689,73.9445,286.2316,0,U,63219,999,7336,.39012445E-3,.13021E-3,0
OTP-2,2025-052AB,2026-07-10T00:12:33.329376,15.24294167,.00082851,97.3845,83.0996,85.2441,274.9742,0,U,63235,999,7334,.20316794E-3,.4897E-4,0
TEVEL2-9,2025-052AD,2026-07-08T15:25:07.851072,15.32589963,.0008135,97.3915,84.9331,74.7614,285.4527,0,U,63237,999,7331,.40917582E-3,.12819E-3,0
TEVEL2-7,2025-052AE,2026-07-11T04:03:31.531680,15.32336153,.0008053,97.3917,87.3624,67.9064,292.3032,0,U,63238,999,7369,.31287E-3,.9701E-4,0
TEVEL2-8,2025-052AF,2026-07-11T04:15:44.551008,15.32321799,.0008071,97.3917,87.3470,68.8547,291.3557,0,U,63239,999,7369,.32578E-3,.10101E-3,0
INNOSAT 16 (RS92S7),2025-155C,2026-07-11T04:55:18.573312,15.25711673,.0012476,97.4575,159.2620,100.3032,259.9613,0,U,64878,999,8433,.1464E-3,.3665E-4,0
GEOSCAN 6 (RS92S6),2025-155D,2026-07-11T04:16:26.300352,15.30603665,.0010006,97.4563,160.8318,93.2966,266.9420,0,U,64879,999,8443,.21764E-3,.637E-4,0
GEOSCAN 1 (RS92S1),2025-155E,2026-07-11T04:05:59.381088,15.31246949,.0009953,97.4559,160.9940,93.6480,266.5899,0,U,64880,999,8444,.22584E-3,.6747E-4,0
239ALFEROV (RS61S),2025-155F,2026-07-11T04:05:11.757408,15.33596611,.0009639,97.4558,161.6382,93.1972,267.0374,0,U,64881,999,8448,.28576E-3,.9215E-4,0
GEOSCAN 2 (RS92S2),2025-155Q,2026-07-11T03:50:56.590944,15.31505240,.0009189,97.4558,161.1454,83.5771,276.6517,0,U,64890,999,8445,.21969E-3,.6613E-4,0
GEOSCAN 5 (RS92S5),2025-155R,2026-07-11T03:42:19.678752,15.33902974,.0008665,97.4551,161.7686,97.3316,262.8912,0,U,64891,999,8449,.27146E-3,.8833E-4,0
GEOSCAN 4 (RS92S4),2025-155S,2026-07-11T04:49:54.474816,15.34071055,.0008625,97.4555,161.8716,97.3912,262.8311,0,U,64892,999,8450,.28954E-3,.9477E-4,0
