KUZGTU 1 (RS47S)        
1 57217U 23091AV  26192.16515264  .00007032  00000+0  24141-3 0  9993
2 57217  97.5057 256.8960 0010511  20.5187 339.6473 15.30411720168042
SONATE-2                
1 59112U 24043Q   26190.40279728  .00036930  00000+0  44852-3 0  9994
2 59112  97.5552 342.1927 0006780 123.5255 236.6650 15.60482785131352
MESAT1                  
1 60209U 24125G   26191.51548683  .00054117  00000+0  52771-3 0  9992
2 60209  97.2265  49.5713 0010995 127.0429 233.1839 15.65989421113215
OOV-CUBE (TUBSAT-30)    
1 60240U 24128F   26190.61158508  .00001327  00000+0  11249-3 0  9993
2 60240  61.9941 147.3745 0041807 138.6970 221.7297 15.02859618109486
COLIBRI-S (RS67S)       
1 61746U 24199M   26192.16984613  .00014385  00000+0  26957-3 0  9999
2 61746  97.2969  66.2553 0008460 176.4780 183.6532 15.48733680141128
HORS 3 (RS81S)          
1 61753U 24199U   26192.14424007  .00025708  00000+0  36075-3 0  9994
2 61753  97.2948  68.4873 0006667 168.3655 191.7756 15.56698814141283
HORS 4 (RS82S)          
1 61754U 24199V   26192.15596697  .00039861  00000+0  45500-3 0  9999
2 61754  97.2892  69.8664 0006571 159.7802 200.3717 15.62085685141385
SIT-2086                
1 61764U 24199AF  26192.15162176  .00024969  00000+0  37545-3 0  9994
2 61764  97.2907  68.8880 0007792 157.0022 203.1582 15.54810310138157
HYPERVIEW 1G (RS66S)    
1 61772U 24199AP  26192.19965684  .00167398  00000+0  74044-3 0  9991
2 61772  97.2811  73.2616 0008139 154.9374 205.2292 15.83952976138461
ALTAIR (RS65S)          
1 61779U 24199AW  26192.19673296  .00005684  00000+0  15671-3 0  9993
2 61779  97.3006  61.3930 0011598 211.6836 148.3712 15.37453179140804
ASRTU-1 (AO-123)        
1 61781U 24199AY  26192.14132802  .00004662  00000+0  13495-3 0  9991
2 61781  97.2977  60.5981 0012581 216.0734 143.9663 15.36015722137606
SAMSAT-IONOSPHERE (RS7*)
1 61784U 24199BB  26192.19805734  .00036179  00000+0  44986-3 0  9997
2 61784  97.2913  68.6837 0008762 173.2543 186.8834 15.59846453141302
RTU MIREA 1 (RS51S)     
1 61785U 24199BC  26192.16497435  .00044758  00000+0  47512-3 0  9990
2 61785  97.2901  69.6149 0008841 168.0269 192.1202 15.63909165138212
TEVEL2-4                
1 63213U 25052D   26192.17110750  .00011528  00000+0  33662-3 0  9990
2 63213  97.3880  88.6129 0003864  59.7118 300.4508 15.35472300 73794
TEVEL2-5                
1 63214U 25052E   26189.65245370  .00014062  00000+0  41324-3 0  9997
2 63214  97.3873  86.0291 0004130  66.2017 293.9660 15.35218873 73403
TEVEL2-6                
1 63215U 25052F   26190.77333909  .00013669  00000+0  40184-3 0  9994
2 63215  97.3877  87.1376 0003968  66.9512 293.2149 15.35215103 73575
TEVEL2-1                
1 63217U 25052H   26192.11448853  .00011367  00000+0  34032-3 0  9999
2 63217  97.3852  88.0769 0004514  68.0772 292.0951 15.34682944 73764
TEVEL2-3                
1 63218U 25052J   26192.17341235  .00011022  00000+0  32943-3 0  9999
2 63218  97.3859  88.1615 0004286  69.2131 290.9570 15.34746846 73778
TEVEL2-2                
1 63219U 25052K   26189.50651823  .00013021  00000+0  39012-3 0  9995
2 63219  97.3852  85.4689 0004704  73.9445 286.2316 15.34625790 73363
OTP-2                   
1 63235U 25052AB  26191.00871909  .00004897  00000+0  20317-3 0  9999
2 63235  97.3845  83.0996 0008285  85.2441 274.9742 15.24294167 73342
TEVEL2-9                
1 63237U 25052AD  26189.64245198  .00012819  00000+0  40918-3 0  9995
2 63237  97.3915  84.9331 0008135  74.7614 285.4527 15.32589963 73319
TEVEL2-7                
1 63238U 25052AE  26192.16911495  .00009701  00000+0  31287-3 0  9992
2 63238  97.3917  87.3624 0008053  67.9064 292.3032 15.32336153 73696
TEVEL2-8                
1 63239U 25052AF  26192.17759897  .00010101  00000+0  32578-3 0  9990
2 63239  97.3917  87.3470 0008071  68.8547 291.3557 15.32321799 73693
INNOSAT 16 (RS92S7)     
1 64878U 25155C   26192.20507608  .00003665  00000+0  14640-3 0  9996
2 64878  97.4575 159.2620 0012476 100.3032 259.9613 15.25711673 84337
GEOSCAN 6 (RS92S6)      
1 64879U 25155D   26192.17808218  .00006370  00000+0  21764-3 0  9995
2 64879  97.4563 160.8318 0010006  93.2966 266.9420 15.30603665 84432
GEOSCAN 1 (RS92S1)      
1 64880U 25155E   26192.17082617  .00006747  00000+0  22584-3 0  9993
2 64880  97.4559 160.9940 0009953  93.6480 266.5899 15.31246949 84441
239ALFEROV (RS61S)      
1 64881U 25155F   26192.17027497  .00009215  00000+0  28576-3 0  9999
2 64881  97.4558 161.6382 0009639  93.1972 267.0374 15.33596611 84485
GEOSCAN 2 (RS92S2)      
1 64890U 25155Q   26192.16037721  .00006613  00000+0  21969-3 0  9997
2 64890  97.4558 161.1454 0009189  83.5771 276.6517 15.31505240 84458
GEOSCAN 5 (RS92S5)      
1 64891U 25155R   26192.15439443  .00008833  00000+0  27146-3 0  9993
2 64891  97.4551 161.7686 0008665  97.3316 262.8912 15.33902974 84498
GEOSCAN 4 (RS92S4)      
1 64892U 25155S   26192.20132494  .00009477  00000+0  28954-3 0  9999
2 64892  97.4555 161.8716 0008625  97.3912 262.8311 15.34071055 84509
